GSAT0215 (GALILEO 19)   
1 43055U 17079A   26154.52423835  .00000040  00000+0  00000+0 0  9993
2 43055  55.0769 221.8831 0002673 260.8878  99.1749  1.70474805 52757
GSAT0216 (GALILEO 20)   
1 43056U 17079B   26155.40197341  .00000041  00000+0  00000+0 0  9993
2 43056  55.0770 221.8588 0004162 276.7209  83.3228  1.70474899 52781
GSAT0217 (GALILEO 21)   
1 43057U 17079C   26153.27644679  .00000038  00000+0  00000+0 0  9994
2 43057  55.0745 221.9149 0004771 284.9791  75.0620  1.70474564 52739
GSAT0218 (GALILEO 22)   
1 43058U 17079D   26155.25625498  .00000041  00000+0  00000+0 0  9997
2 43058  55.0754 221.8583 0004282 273.1865  86.8559  1.70474811 52792
BEIDOU-3 M7             
1 43107U 18003A   26156.00043451 -.00000058  00000+0  00000+0 0  9996
2 43107  54.3393 302.7398 0005055  90.6978 269.3477  1.86228453 57122
BEIDOU-3 M8             
1 43108U 18003B   26154.87148684 -.00000062  00000+0  00000+0 0  9999
2 43108  54.3329 302.7609 0002231 266.6467  93.3113  1.86231332 57119
BEIDOU-3 M4             
1 43207U 18018A   26153.70349578 -.00000051  00000+0  00000+0 0  9999
2 43207  56.6388  63.6258 0007672  13.2474 346.7904  1.86231554 56477
BEIDOU-3 M3             
1 43208U 18018B   26155.91779994 -.00000039  00000+0  00000+0 0  9990
2 43208  56.6402  63.5572 0008992 337.7368  22.2504  1.86231395 56515
BEIDOU-3 M9             
1 43245U 18029A   26155.59858909 -.00000057  00000+0  00000+0 0  9991
2 43245  54.2059 300.3891 0000855 130.6986 229.2957  1.86228675 55663
BEIDOU-3 M10            
1 43246U 18029B   26155.53301500 -.00000058  00000+0  00000+0 0  9997
2 43246  54.2031 300.4175 0004176  39.7110 320.3062  1.86229536 55643
IRNSS-1I                
1 43286U 18035A   26154.86296579  .00000083  00000+0  00000+0 0  9999
2 43286  28.7232  74.4103 0018238 238.1364 305.5602  1.00268957 29940
COSMOS 2527 [GLONASS-M] 
1 43508U 18053A   26154.47607152 -.00000013  00000+0  00000+0 0  9990
2 43508  65.5707  74.3639 0007385 242.6026 117.3366  2.13102282 61981
BEIDOU-2 IGSO-7         
1 43539U 18057A   26155.94337902 -.00000001  00000+0  00000+0 0  9991
2 43539  55.1930 163.1644 0104565 237.9031 302.7938  1.00255284 29000
GSAT0221 (GALILEO 25)   
1 43564U 18060A   26155.74673316 -.00000070  00000+0  00000+0 0  9999
2 43564  57.1754 342.1162 0002780 310.8178  49.1700  1.70476097 48955
GSAT0222 (GALILEO 26)   
1 43565U 18060B   26153.62003207 -.00000077  00000+0  00000+0 0  9998
2 43565  57.1811 342.1774 0001801 259.8309 100.1613  1.70475858 48966
GSAT0219 (GALILEO 23)   
1 43566U 18060C   26155.01411019 -.00000072  00000+0  00000+0 0  9993
2 43566  57.1765 342.1411 0002350 331.7106  28.2884  1.70476084 48960
GSAT0220 (GALILEO 24)   
1 43567U 18060D   26155.82167289 -.00000069  00000+0  00000+0 0  9996
2 43567  57.1755 342.1200 0002318 322.0602  37.9355  1.70476052 48969
BEIDOU-3 M5             
1 43581U 18062A   26153.07238422  .00000068  00000+0  00000+0 0  9995
2 43581  54.0848 182.8178 0005400 289.3317  70.6790  1.86228829 53350
BEIDOU-3 M6             
1 43582U 18062B   26156.15751238  .00000075  00000+0  00000+0 0  9991
2 43582  54.0845 182.7022 0004837  12.0882 347.9796  1.86228010 53411
BEIDOU-3 M12            
1 43602U 18067A   26156.09591174  .00000075  00000+0  00000+0 0  9993
2 43602  54.1794 181.4501 0007802  30.5726 329.5272  1.86227933 52892
BEIDOU-3 M11            
1 43603U 18067B   26156.23093994  .00000077  00000+0  00000+0 0  9999
2 43603  54.1770 181.4093 0004488  14.1662 345.9003  1.86227380 52921
BEIDOU-3 M13            
1 43622U 18072A   26154.57499090 -.00000045  00000+0  00000+0 0  9994
2 43622  56.6134  63.1084 0007738 326.0448  33.9283  1.86231528 52403
BEIDOU-3 M14            
1 43623U 18072B   26156.05129433 -.00000040  00000+0  00000+0 0  9996
2 43623  56.6166  63.0540 0006265 355.0172   5.0038  1.86231665 52427
BEIDOU-3 M16            
1 43647U 18078A   26155.66985000 -.00000057  00000+0  00000+0 0  9992
2 43647  54.1020 300.4249 0007420  40.6792 319.3633  1.86232405 51927
BEIDOU-3 M15            
1 43648U 18078B   26152.57744501 -.00000074  00000+0  00000+0 0  9998
2 43648  54.1007 300.5335 0004536  56.3394 303.6792  1.86232507 51887
BEIDOU-3 G1             
1 43683U 18085A   26156.23843160 -.00000096  00000+0  00000+0 0  9997
2 43683   2.8379  97.7078 0008557 345.8098  55.9747  1.00272042 27942
COSMOS 2529 [GLONASS-M] 
1 43687U 18086A   26153.16491264  .00000069  00000+0  00000+0 0  9994
2 43687  64.2940 193.1017 0011731 256.1389 103.8121  2.13102105 58963
BEIDOU-3 M17            
1 43706U 18093A   26154.62162884  .00000067  00000+0  00000+0 0  9997
2 43706  54.1684 182.7566 0009972 291.4336 250.9335  1.86228565 51286
BEIDOU-3 M18            
1 43707U 18093B   26155.28675966  .00000069  00000+0  00000+0 0  9993
2 43707  54.1691 182.7261 0007731 321.6175  38.3865  1.86226753 51299
NAVSTAR 77 (USA 289)    
1 43873U 18109A   26156.18971531  .00000011  00000+0  00000+0 0  9999
2 43873  55.6748  92.6605 0038224 198.2024 262.8726  2.00561252 54831
BEIDOU-3 IGSO-1         
1 44204U 19023A   26155.58793341 -.00000211  00000+0  00000+0 0  9991
2 44204  58.6768  37.7810 0025470 225.7549 318.3782  1.00295778  7080
