OBJECT_NAME,OBJECT_ID,EPOCH,MEAN_MOTION,ECCENTRICITY,INCLINATION,RA_OF_ASC_NODE,ARG_OF_PERICENTER,MEAN_ANOMALY,EPHEMERIS_TYPE,CLASSIFICATION_TYPE,NORAD_CAT_ID,ELEMENT_SET_NO,REV_AT_EPOCH,BSTAR,MEAN_MOTION_DOT,MEAN_MOTION_DDOT
GSAT0215 (GALILEO 19),2017-079A,2026-06-03T12:34:54.193440,1.70474805,.00026737,55.0769,221.8831,260.8878,99.1749,0,U,43055,999,5275,0,.4E-6,0
GSAT0216 (GALILEO 20),2017-079B,2026-06-04T09:38:50.502624,1.70474899,.00041628,55.0770,221.8588,276.7209,83.3228,0,U,43056,999,5278,0,.41E-6,0
GSAT0217 (GALILEO 21),2017-079C,2026-06-02T06:38:05.002656,1.70474564,.0004771,55.0745,221.9149,284.9791,75.0620,0,U,43057,999,5273,0,.38E-6,0
GSAT0218 (GALILEO 22),2017-079D,2026-06-04T06:09:00.430272,1.70474811,.00042822,55.0754,221.8583,273.1865,86.8559,0,U,43058,999,5279,0,.41E-6,0
BEIDOU-3 M7 (C27),2018-003A,2026-06-05T00:00:37.541664,1.86228453,.00050557,54.3393,302.7398,90.6978,269.3477,0,U,43107,999,5712,0,-.58E-6,0
BEIDOU-3 M8 (C28),2018-003B,2026-06-03T20:54:56.462976,1.86231332,.00022318,54.3329,302.7609,266.6467,93.3113,0,U,43108,999,5711,0,-.62E-6,0
BEIDOU-3 M4 (C22),2018-018A,2026-06-02T16:53:02.035392,1.86231554,.00076728,56.6388,63.6258,13.2474,346.7904,0,U,43207,999,5647,0,-.51E-6,0
BEIDOU-3 M3 (C21),2018-018B,2026-06-04T22:01:37.914816,1.86231395,.00089929,56.6402,63.5572,337.7368,22.2504,0,U,43208,999,5651,0,-.39E-6,0
BEIDOU-3 M9 (C29),2018-029A,2026-06-04T14:21:58.097376,1.86228675,.00008557,54.2059,300.3891,130.6986,229.2957,0,U,43245,999,5566,0,-.57E-6,0
BEIDOU-3 M10 (C30),2018-029B,2026-06-04T12:47:32.496000,1.86229536,.00041761,54.2031,300.4175,39.7110,320.3062,0,U,43246,999,5564,0,-.58E-6,0
IRNSS-1I,2018-035A,2026-06-03T20:42:40.244256,1.00268957,.0018238,28.7232,74.4103,238.1364,305.5602,0,U,43286,999,2994,0,.83E-6,0
COSMOS 2527 (756),2018-053A,2026-06-03T11:25:32.579328,2.13102282,.00073854,65.5707,74.3639,242.6026,117.3366,0,U,43508,999,6198,0,-.13E-6,0
BEIDOU-2 IGSO-7 (C16),2018-057A,2026-06-04T22:38:27.947328,1.00255284,.0104565,55.1930,163.1644,237.9031,302.7938,0,U,43539,999,2900,0,-.1E-7,0
GSAT0221 (GALILEO 25),2018-060A,2026-06-04T17:55:17.745024,1.70476097,.00027803,57.1754,342.1162,310.8178,49.1700,0,U,43564,999,4895,0,-.7E-6,0
GSAT0222 (GALILEO 26),2018-060B,2026-06-02T14:52:50.770848,1.70475858,.00018015,57.1811,342.1774,259.8309,100.1613,0,U,43565,999,4896,0,-.77E-6,0
GSAT0219 (GALILEO 23),2018-060C,2026-06-04T00:20:19.120416,1.70476084,.00023501,57.1765,342.1411,331.7106,28.2884,0,U,43566,999,4896,0,-.72E-6,0
GSAT0220 (GALILEO 24),2018-060D,2026-06-04T19:43:12.537696,1.70476052,.00023181,57.1755,342.1200,322.0602,37.9355,0,U,43567,999,4896,0,-.69E-6,0
BEIDOU-3 M5 (C23),2018-062A,2026-06-02T01:44:13.996608,1.86228829,.00054009,54.0848,182.8178,289.3317,70.6790,0,U,43581,999,5335,0,.68E-6,0
BEIDOU-3 M6 (C24),2018-062B,2026-06-05T03:46:49.069632,1.86228010,.00048379,54.0845,182.7022,12.0882,347.9796,0,U,43582,999,5341,0,.75E-6,0
BEIDOU-3 M12 (C26),2018-067A,2026-06-05T02:18:06.774336,1.86227933,.00078029,54.1794,181.4501,30.5726,329.5272,0,U,43602,999,5289,0,.75E-6,0
BEIDOU-3 M11 (C25),2018-067B,2026-06-05T05:32:33.210816,1.86227380,.00044885,54.1770,181.4093,14.1662,345.9003,0,U,43603,999,5292,0,.77E-6,0
BEIDOU-3 M13 (C32),2018-072A,2026-06-03T13:47:59.213760,1.86231528,.00077384,56.6134,63.1084,326.0448,33.9283,0,U,43622,999,5240,0,-.45E-6,0
BEIDOU-3 M14 (C33),2018-072B,2026-06-05T01:13:51.830112,1.86231665,.00062659,56.6166,63.0540,355.0172,5.0038,0,U,43623,999,5242,0,-.4E-6,0
BEIDOU-3 M16 (C35),2018-078A,2026-06-04T16:04:35.040000,1.86232405,.00074205,54.1020,300.4249,40.6792,319.3633,0,U,43647,999,5192,0,-.57E-6,0
BEIDOU-3 M15 (C34),2018-078B,2026-06-01T13:51:31.248864,1.86232507,.00045363,54.1007,300.5335,56.3394,303.6792,0,U,43648,999,5188,0,-.74E-6,0
BEIDOU-3 G1 (C59),2018-085A,2026-06-05T05:43:20.490240,1.00272042,.00085578,2.8379,97.7078,345.8098,55.9747,0,U,43683,999,2794,0,-.96E-6,0
COSMOS 2529 (757),2018-086A,2026-06-02T03:57:28.452096,2.13102105,.00117311,64.2940,193.1017,256.1389,103.8121,0,U,43687,999,5896,0,.69E-6,0
BEIDOU-3 M17 (C36),2018-093A,2026-06-03T14:55:08.731776,1.86228565,.0009972,54.1684,182.7566,291.4336,250.9335,0,U,43706,999,5128,0,.67E-6,0
BEIDOU-3 M18 (C37),2018-093B,2026-06-04T06:52:56.034624,1.86226753,.0007731,54.1691,182.7261,321.6175,38.3865,0,U,43707,999,5129,0,.69E-6,0
GPS BIII-1  (PRN 04),2018-109A,2026-06-05T04:33:11.402784,2.00561252,.00382247,55.6748,92.6605,198.2024,262.8726,0,U,43873,999,5483,0,.11E-6,0
BEIDOU-3 IGSO-1 (C38),2019-023A,2026-06-04T14:06:37.446624,1.00295778,.00254705,58.6768,37.7810,225.7549,318.3782,0,U,44204,999,708,0,-.211E-5,0
